{"type": "FeatureCollection", "features": [ {"type": "Feature", "properties": {"norad_id": 34833, "name": "IRIDIUM 33 DEB", "group": "iridium-33-debris", "lat": -26.782015364525368, "lon": 48.75464537715672, "alt_km": 731.8615375772251, "timestamp": "2025-12-13T16:48:33.094789+00:00", "meta": {"OBJECT_NAME": "IRIDIUM 33 DEB", "OBJECT_ID": "1997-051MH", "EPOCH": "2025-12-12T16:42:34.131168", "MEAN_MOTION": 14.52378929, "ECCENTRICITY": 0.00217937, "INCLINATION": 86.3927, "RA_OF_ASC_NODE": 51.012, "ARG_OF_PERICENTER": 98.7029, "MEAN_ANOMALY": 27.8511, "EPHEMERIS_TYPE": 0, "CLASSIFICATION_TYPE": "U", "NORAD_CAT_ID": 34833, "ELEMENT_SET_NO": 999, "REV_AT_EPOCH": 87714, "BSTAR": 0.0012180425, "MEAN_MOTION_DOT": 4.994e-05, "MEAN_MOTION_DDOT": 0}, "tle": {"line1": "1 34833U 97051MH  25346.69622837  .00004994  00000+0  12180-2 0  9995", "line2": "2 34833  86.3927  51.0120 0021793  98.7029  27.8511 14.52378929877145"}}, "geometry": {"type": "Point", "coordinates": [48.75464537715672, -26.782015364525368]}}, {"type": "Feature", "properties": {"norad_id": 34870, "name": "IRIDIUM 33 DEB", "group": "iridium-33-debris", "lat": 28.37875375381543, "lon": -44.358183678410455, "alt_km": 649.2040409225465, "timestamp": "2025-12-13T16:48:33.094799+00:00", "meta": {"OBJECT_NAME": "IRIDIUM 33 DEB", "OBJECT_ID": "1997-051MQ", "EPOCH": "2025-12-12T05:10:32.154816", "MEAN_MOTION": 14.76416829, "ECCENTRICITY": 0.00161138, "INCLINATION": 86.3104, "RA_OF_ASC_NODE": 314.324, "ARG_OF_PERICENTER": 184.3674, "MEAN_ANOMALY": 237.8107, "EPHEMERIS_TYPE": 0, "CLASSIFICATION_TYPE": "U", "NORAD_CAT_ID": 34870, "ELEMENT_SET_NO": 999, "REV_AT_EPOCH": 88903, "BSTAR": 0.0023634796, "MEAN_MOTION_DOT": 0.00016508, "MEAN_MOTION_DDOT": 0}, "tle": {"line1": "1 34870U 97051MQ  25346.21564994  .00016508  00000+0  23635-2 0  9994", "line2": "2 34870  86.3104 314.3240 0016113 184.3674 237.8107 14.76416829889032"}}, "geometry": {"type": "Point", "coordinates": [-44.358183678410455, 28.37875375381543]}}, {"type": "Feature", "properties": {"norad_id": 34896, "name": "IRIDIUM 33 DEB", "group": "iridium-33-debris", "lat": -14.672260280231564, "lon": 147.21823219605696, "alt_km": 661.4887649251086, "timestamp": "2025-12-13T16:48:33.094810+00:00", "meta": {"OBJECT_NAME": "IRIDIUM 33 DEB", "OBJECT_ID": "1997-051MY", "EPOCH": "2025-12-12T17:48:22.643136", "MEAN_MOTION": 14.66279209, "ECCENTRICITY": 0.00240874, "INCLINATION": 86.3285, "RA_OF_ASC_NODE": 326.6847, "ARG_OF_PERICENTER": 215.1277, "MEAN_ANOMALY": 323.4993, "EPHEMERIS_TYPE": 0, "CLASSIFICATION_TYPE": "U", "NORAD_CAT_ID": 34896, "ELEMENT_SET_NO": 999, "REV_AT_EPOCH": 87619, "BSTAR": 0.0014275546, "MEAN_MOTION_DOT": 7.927e-05, "MEAN_MOTION_DDOT": 0}, "tle": {"line1": "1 34896U 97051MY  25346.74192874  .00007927  00000+0  14276-2 0  9990", "line2": "2 34896  86.3285 326.6847 0024087 215.1277 323.4993 14.66279209876196"}}, "geometry": {"type": "Point", "coordinates": [147.21823219605696, -14.672260280231564]}}, {"type": "Feature", "properties": {"norad_id": 34926, "name": "IRIDIUM 33 DEB", "group": "iridium-33-debris", "lat": -59.56139048570052, "lon": -165.56171534489948, "alt_km": 683.533268151953, "timestamp": "2025-12-13T16:48:33.094820+00:00", "meta": {"OBJECT_NAME": "IRIDIUM 33 DEB", "OBJECT_ID": "1997-051NF", "EPOCH": "2025-12-12T12:20:13.285824", "MEAN_MOTION": 14.54404213, "ECCENTRICITY": 0.00756259, "INCLINATION": 86.1328, "RA_OF_ASC_NODE": 8.3778, "ARG_OF_PERICENTER": 293.6501, "MEAN_ANOMALY": 219.03, "EPHEMERIS_TYPE": 0, "CLASSIFICATION_TYPE": "U", "NORAD_CAT_ID": 34926, "ELEMENT_SET_NO": 999, "REV_AT_EPOCH": 86453, "BSTAR": 0.0080603055, "MEAN_MOTION_DOT": 0.0003576, "MEAN_MOTION_DDOT": 0}, "tle": {"line1": "1 34926U 97051NF  25346.51404266  .00035760  00000+0  80603-2 0  9993", "line2": "2 34926  86.1328   8.3778 0075625 293.6501 219.0300 14.54404213864537"}}, "geometry": {"type": "Point", "coordinates": [-165.56171534489948, -59.56139048570052]}}, {"type": "Feature", "properties": {"norad_id": 34985, "name": "IRIDIUM 33 DEB", "group": "iridium-33-debris", "lat": -37.367775063238, "lon": 53.6910589257026, "alt_km": 762.3680611359541, "timestamp": "2025-12-13T16:48:33.094830+00:00", "meta": {"OBJECT_NAME": "IRIDIUM 33 DEB", "OBJECT_ID": "1997-051NR", "EPOCH": "2025-12-12T23:13:51.153888", "MEAN_MOTION": 14.42012529, "ECCENTRICITY": 0.00207583, "INCLINATION": 86.37, "RA_OF_ASC_NODE": 56.7821, "ARG_OF_PERICENTER": 219.0302, "MEAN_ANOMALY": 263.5766, "EPHEMERIS_TYPE": 0, "CLASSIFICATION_TYPE": "U", "NORAD_CAT_ID": 34985, "ELEMENT_SET_NO": 999, "REV_AT_EPOCH": 87178, "BSTAR": 0.0010455492, "MEAN_MOTION_DOT": 3.457e-05, "MEAN_MOTION_DDOT": 0}, "tle": {"line1": "1 34985U 97051NR  25346.96795317  .00003457  00000+0  10455-2 0  9993", "line2": "2 34985  86.3700  56.7821 0020758 219.0302 263.5766 14.42012529871789"}}, "geometry": {"type": "Point", "coordinates": [53.6910589257026, -37.367775063238]}}, {"type": "Feature", "properties": {"norad_id": 35051, "name": "IRIDIUM 33 DEB", "group": "iridium-33-debris", "lat": -84.23886043188865, "lon": -31.136437029111494, "alt_km": 748.4490976240677, "timestamp": "2025-12-13T16:48:33.094840+00:00", "meta": {"OBJECT_NAME": "IRIDIUM 33 DEB", "OBJECT_ID": "1997-051NX", "EPOCH": "2025-12-11T08:47:57.045408", "MEAN_MOTION": 14.47588957, "ECCENTRICITY": 0.00106566, "INCLINATION": 86.3243, "RA_OF_ASC_NODE": 9.4603, "ARG_OF_PERICENTER": 94.8899, "MEAN_ANOMALY": 265.3522, "EPHEMERIS_TYPE": 0, "CLASSIFICATION_TYPE": "U", "NORAD_CAT_ID": 35051, "ELEMENT_SET_NO": 999, "REV_AT_EPOCH": 86976, "BSTAR": 0.001042299, "MEAN_MOTION_DOT": 3.858e-05, "MEAN_MOTION_DDOT": 0}, "tle": {"line1": "1 35051U 97051NX  25345.36663247  .00003858  00000+0  10423-2 0  9997", "line2": "2 35051  86.3243   9.4603 0010656  94.8899 265.3522 14.47588957869768"}}, "geometry": {"type": "Point", "coordinates": [-31.136437029111494, -84.23886043188865]}}, {"type": "Feature", "properties": {"norad_id": 35052, "name": "IRIDIUM 33 DEB", "group": "iridium-33-debris", "lat": 31.876435949677784, "lon": 22.351594217109493, "alt_km": 755.4016294692465, "timestamp": "2025-12-13T16:48:33.094851+00:00", "meta": {"OBJECT_NAME": "IRIDIUM 33 DEB", "OBJECT_ID": "1997-051NY", "EPOCH": "2025-12-12T08:56:28.870368", "MEAN_MOTION": 14.38491759, "ECCENTRICITY": 0.00136796, "INCLINATION": 86.3311, "RA_OF_ASC_NODE": 20.6338, "ARG_OF_PERICENTER": 86.1311, "MEAN_ANOMALY": 274.145, "EPHEMERIS_TYPE": 0, "CLASSIFICATION_TYPE": "U", "NORAD_CAT_ID": 35052, "ELEMENT_SET_NO": 999, "REV_AT_EPOCH": 87270, "BSTAR": 0.0002781126, "MEAN_MOTION_DOT": 8.7e-06, "MEAN_MOTION_DDOT": 0}, "tle": {"line1": "1 35052U 97051NY  25346.37255637  .00000870  00000+0  27811-3 0  9991", "line2": "2 35052  86.3311  20.6338 0013679  86.1311 274.1450 14.38491759872705"}}, "geometry": {"type": "Point", "coordinates": [22.351594217109493, 31.876435949677784]}}, {"type": "Feature", "properties": {"norad_id": 35080, "name": "IRIDIUM 33 DEB", "group": "iridium-33-debris", "lat": 11.20130106402573, "lon": 52.66920812070338, "alt_km": 652.051681462156, "timestamp": "2025-12-13T16:48:33.094861+00:00", "meta": {"OBJECT_NAME": "IRIDIUM 33 DEB", "OBJECT_ID": "1997-051PF", "EPOCH": "2025-12-12T03:35:19.907808", "MEAN_MOTION": 14.85960238, "ECCENTRICITY": 0.00604695, "INCLINATION": 86.207, "RA_OF_ASC_NODE": 52.6577, "ARG_OF_PERICENTER": 181.932, "MEAN_ANOMALY": 178.1681, "EPHEMERIS_TYPE": 0, "CLASSIFICATION_TYPE": "U", "NORAD_CAT_ID": 35080, "ELEMENT_SET_NO": 999, "REV_AT_EPOCH": 69679, "BSTAR": 0.0091733841, "MEAN_MOTION_DOT": 0.00083628, "MEAN_MOTION_DDOT": 0}, "tle": {"line1": "1 35080U 97051PF  25346.14953597  .00083628  00000+0  91734-2 0  9993", "line2": "2 35080  86.2070  52.6577 0060469 181.9320 178.1681 14.85960238696797"}}, "geometry": {"type": "Point", "coordinates": [52.66920812070338, 11.20130106402573]}}, {"type": "Feature", "properties": {"norad_id": 35297, "name": "IRIDIUM 33 DEB", "group": "iridium-33-debris", "lat": -37.9113209805643, "lon": 59.526423927644714, "alt_km": 760.5641832269266, "timestamp": "2025-12-13T16:48:33.094871+00:00", "meta": {"OBJECT_NAME": "IRIDIUM 33 DEB", "OBJECT_ID": "1997-051PM", "EPOCH": "2025-12-12T22:42:20.538720", "MEAN_MOTION": 14.45159336, "ECCENTRICITY": 0.00177378, "INCLINATION": 86.3854, "RA_OF_ASC_NODE": 62.6701, "ARG_OF_PERICENTER": 139.4968, "MEAN_ANOMALY": 220.7558, "EPHEMERIS_TYPE": 0, "CLASSIFICATION_TYPE": "U", "NORAD_CAT_ID": 35297, "ELEMENT_SET_NO": 999, "REV_AT_EPOCH": 70429, "BSTAR": 0.0010165954, "MEAN_MOTION_DOT": 3.583e-05, "MEAN_MOTION_DDOT": 0}, "tle": {"line1": "1 35297U 97051PM  25346.94607105  .00003583  00000+0  10166-2 0  9994", "line2": "2 35297  86.3854  62.6701 0017737 139.4968 220.7558 14.45159336704291"}}, "geometry": {"type": "Point", "coordinates": [59.526423927644714, -37.9113209805643]}}, {"type": "Feature", "properties": {"norad_id": 35299, "name": "IRIDIUM 33 DEB", "group": "iridium-33-debris", "lat": -60.39206544756302, "lon": -140.67309101327953, "alt_km": 795.6200640622019, "timestamp": "2025-12-13T16:48:33.094881+00:00", "meta": {"OBJECT_NAME": "IRIDIUM 33 DEB", "OBJECT_ID": "1997-051PP", "EPOCH": "2025-12-12T09:58:22.179072", "MEAN_MOTION": 14.40859086, "ECCENTRICITY": 0.00589602, "INCLINATION": 86.2886, "RA_OF_ASC_NODE": 33.3272, "ARG_OF_PERICENTER": 103.4207, "MEAN_ANOMALY": 316.2775, "EPHEMERIS_TYPE": 0, "CLASSIFICATION_TYPE": "U", "NORAD_CAT_ID": 35299, "ELEMENT_SET_NO": 999, "REV_AT_EPOCH": 86326, "BSTAR": 0.0012314468, "MEAN_MOTION_DOT": 4.048e-05, "MEAN_MOTION_DDOT": 0}, "tle": {"line1": "1 35299U 97051PP  25346.41553448  .00004048  00000+0  12314-2 0  9992", "line2": "2 35299  86.2886  33.3272 0058960 103.4207 316.2775 14.40859086863264"}}, "geometry": {"type": "Point", "coordinates": [-140.67309101327953, -60.39206544756302]}}]}